OBJECT_NAME,OBJECT_ID,EPOCH,MEAN_MOTION,ECCENTRICITY,INCLINATION,RA_OF_ASC_NODE,ARG_OF_PERICENTER,MEAN_ANOMALY,EPHEMERIS_TYPE,CLASSIFICATION_TYPE,NORAD_CAT_ID,ELEMENT_SET_NO,REV_AT_EPOCH,BSTAR,MEAN_MOTION_DOT,MEAN_MOTION_DDOT
STARLINK-37353,2026-111K,2026-06-13T17:25:04.415520,15.80817314,.0003789,53.1569,168.9578,348.1205,11.9728,0,U,69157,999,371,.18247002E-2,.374586E-2,0
STARLINK-37363,2026-111L,2026-06-14T14:00:01.999872,15.73295030,.00011926,53.1594,164.6707,80.6888,116.8198,0,U,69158,999,513,-.1990159E-1,-.2408018E-1,0
STARLINK-37343,2026-111M,2026-06-14T14:00:01.999872,15.49298848,.00008781,53.1588,165.7710,77.9322,296.9449,0,U,69159,999,513,.23281912E-3,.12516E-3,0
STARLINK-37328,2026-111N,2026-06-13T17:21:52.143552,15.80975520,.00028828,53.1569,168.9418,21.7732,338.3413,0,U,69160,999,371,.21155205E-2,.440945E-2,0
STARLINK-37311,2026-111P,2026-06-14T13:24:12.655584,15.78217788,.00014114,53.1566,164.9095,170.6686,189.4362,0,U,69161,999,384,.11729074E-2,.209579E-2,0
STARLINK-36286,2026-111Q,2026-06-14T01:13:18.759648,15.78761169,.00020619,53.1564,167.4332,147.7855,212.3293,0,U,69162,999,376,.26694472E-2,.507206E-2,0
STARLINK-37196,2026-111R,2026-06-14T13:26:54.237408,15.78098124,.00014352,53.1566,164.9215,48.8780,311.2365,0,U,69163,999,384,.77788971E-3,.136844E-2,0
STARLINK-36288,2026-111S,2026-06-14T14:00:01.999872,15.67612806,.00012513,53.1586,164.8707,73.5704,25.5031,0,U,69164,999,513,-.26228218E-1,-.2540091E-1,0
STARLINK-37445,2026-111T,2026-06-14T14:00:01.999872,15.65017010,.00008312,53.1587,164.9161,77.3462,359.4680,0,U,69165,999,513,-.28775171E-1,-.2510797E-1,0
STARLINK-37491,2026-111U,2026-06-14T14:00:01.999872,15.73729274,.00011358,53.1584,164.8007,69.8875,63.9936,0,U,69166,999,513,-.20901071E-1,-.2611991E-1,0
STARLINK-37474,2026-111V,2026-06-14T11:49:42.803328,15.78142856,.00009138,53.1570,165.2100,76.2100,283.9024,0,U,69167,999,383,.13870743E-2,.248272E-2,0
STARLINK-37469,2026-111W,2026-06-14T14:00:01.999872,15.49298072,.00008235,53.1587,165.9602,83.2327,197.4683,0,U,69168,999,513,.17842218E-3,.9483E-4,0
STARLINK-37515,2026-111X,2026-06-14T14:00:01.999872,15.69924910,.00011678,53.1595,164.7828,78.2414,63.9549,0,U,69169,999,513,-.24189146E-1,-.2574148E-1,0
STARLINK-37437,2026-111Y,2026-06-13T06:48:25.085088,15.78119735,.0001518,53.1583,171.1764,97.1544,262.9650,0,U,69170,999,364,.13804E-2,.24678E-2,0
STARLINK-37392,2026-111Z,2026-06-14T14:00:01.999872,15.69194339,.00011888,53.1591,164.7180,84.5286,88.6066,0,U,69171,999,513,-.25307359E-1,-.2606726E-1,0
STARLINK-37472,2026-111AA,2026-06-14T14:00:01.999872,15.54568862,.00010751,53.1595,164.9846,61.5574,339.8311,0,U,69172,999,513,-.43534326E-1,-.2586272E-1,0
STARLINK-37461,2026-111AB,2026-06-14T14:00:01.999872,15.49299298,.00011511,53.1584,165.8678,83.0499,242.9423,0,U,69173,999,513,.21669631E-3,.11617E-3,0
STARLINK-37333,2026-111AC,2026-06-14T14:00:01.999872,15.64711485,.00011091,53.1586,164.8800,72.8396,21.0424,0,U,69174,999,513,-.20064419E-1,-.177317E-1,0
STARLINK-37385,2026-111AD,2026-06-14T14:00:01.999872,15.49299714,.00011506,53.1586,165.7808,84.3973,284.4123,0,U,69175,999,513,.34933582E-3,.19021E-3,0
STARLINK-37414,2026-111AE,2026-06-14T14:00:01.999872,15.68983917,.00012394,53.1593,164.7281,64.1702,104.0052,0,U,69176,999,513,-.25501819E-1,-.2604217E-1,0
STRIX-7,2026-112A,2026-06-14T13:51:37.640736,15.01426167,.00233674,44.9057,206.1560,32.1851,328.0442,0,U,69177,999,348,.19590961E-3,.2348E-4,0
SHENZHOU-23 (SZ-23),2026-113A,2026-06-14T14:37:38.919072,15.60706958,.00076677,41.4694,337.6883,56.3828,303.7742,0,U,69180,999,29294,.24676405E-3,.20829E-3,0
STARLINK-37380,2026-114A,2026-06-14T13:25:45.310944,15.78079334,.00011619,53.1580,215.6233,107.8185,252.2964,0,U,69182,999,435,.6569441E-3,.115068E-2,0
STARLINK-37089,2026-114B,2026-06-14T10:22:00.763392,15.78071104,.00014848,53.1579,216.2491,59.5473,300.5695,0,U,69183,999,433,.14927236E-2,.266963E-2,0
STARLINK-37428,2026-114C,2026-06-14T13:22:23.255904,15.78068534,.00013622,53.1581,215.6080,65.9144,294.2020,0,U,69184,999,435,.64901929E-3,.113598E-2,0
STARLINK-37237,2026-114D,2026-06-14T13:18:25.343136,15.78065868,.00006794,53.1583,215.5896,92.0726,268.0373,0,U,69185,999,435,.72564203E-3,.127277E-2,0
STARLINK-37365,2026-114E,2026-06-14T13:18:52.457184,15.78067279,.00010199,53.1582,215.5908,78.6760,281.4377,0,U,69186,999,435,.62532428E-3,.109364E-2,0
STARLINK-37209,2026-114F,2026-06-14T13:17:45.738240,15.78085132,.00014705,53.1580,215.5862,55.0143,305.1016,0,U,69187,999,435,.84379317E-3,.148614E-2,0
STARLINK-37359,2026-114G,2026-06-14T13:17:07.545120,15.78086219,.00010871,53.1582,215.5833,98.3964,261.7181,0,U,69188,999,435,.84333492E-3,.148537E-2,0
