STARLINK-37353          
1 69157U 26111K   26164.72574555  .00374586  00000+0  18247-2 0  9994
2 69157  53.1569 168.9578 0003789 348.1205  11.9728 15.80817314  3710
STARLINK-37363          
1 69158U 26111L   26165.58335648 -.02408018  00000+0 -19902-1 0  9998
2 69158  53.1594 164.6707 0001192  80.6888 116.8198 15.73295030  5138
STARLINK-37343          
1 69159U 26111M   26165.58335648  .00012516  00000+0  23282-3 0  9997
2 69159  53.1588 165.7710 0000878  77.9322 296.9449 15.49298848  5132
STARLINK-37328          
1 69160U 26111N   26164.72352018  .00440945  00000+0  21155-2 0  9991
2 69160  53.1569 168.9418 0002882  21.7732 338.3413 15.80975520  3710
STARLINK-37311          
1 69161U 26111P   26165.55847981  .00209579  00000+0  11729-2 0  9994
2 69161  53.1566 164.9095 0001411 170.6686 189.4362 15.78217788  3848
STARLINK-36286          
1 69162U 26111Q   26165.05091157  .00507206  00000+0  26694-2 0  9991
2 69162  53.1564 167.4332 0002061 147.7855 212.3293 15.78761169  3761
STARLINK-37196          
1 69163U 26111R   26165.56034997  .00136844  00000+0  77789-3 0  9995
2 69163  53.1566 164.9215 0001435  48.8780 311.2365 15.78098124  3840
STARLINK-36288          
1 69164U 26111S   26165.58335648 -.02540091  00000+0 -26228-1 0  9992
2 69164  53.1586 164.8707 0001251  73.5704  25.5031 15.67612806  5131
STARLINK-37445          
1 69165U 26111T   26165.58335648 -.02510797  00000+0 -28775-1 0  9992
2 69165  53.1587 164.9161 0000831  77.3462 359.4680 15.65017010  5137
STARLINK-37491          
1 69166U 26111U   26165.58335648 -.02611991  00000+0 -20901-1 0  9994
2 69166  53.1584 164.8007 0001135  69.8875  63.9936 15.73729274  5137
STARLINK-37474          
1 69167U 26111V   26165.49285652  .00248272  00000+0  13871-2 0  9997
2 69167  53.1570 165.2100 0000913  76.2100 283.9024 15.78142856  3835
STARLINK-37469          
1 69168U 26111W   26165.58335648  .00009483  00000+0  17842-3 0  9991
2 69168  53.1587 165.9602 0000823  83.2327 197.4683 15.49298072  5132
STARLINK-37515          
1 69169U 26111X   26165.58335648 -.02574148  00000+0 -24189-1 0  9991
2 69169  53.1595 164.7828 0001167  78.2414  63.9549 15.69924910  5139
STARLINK-37437          
1 69170U 26111Y   26164.28362367  .00246780  00000+0  13804-2 0  9994
2 69170  53.1583 171.1764 0001518  97.1544 262.9650 15.78119735  3642
STARLINK-37392          
1 69171U 26111Z   26165.58335648 -.02606726  00000+0 -25307-1 0  9995
2 69171  53.1591 164.7180 0001188  84.5286  88.6066 15.69194339  5131
STARLINK-37472          
1 69172U 26111AA  26165.58335648 -.02586272  00000+0 -43534-1 0  9991
2 69172  53.1595 164.9846 0001075  61.5574 339.8311 15.54568862  5131
STARLINK-37461          
1 69173U 26111AB  26165.58335648  .00011617  00000+0  21670-3 0  9993
2 69173  53.1584 165.8678 0001151  83.0499 242.9423 15.49299298  5139
STARLINK-37333          
1 69174U 26111AC  26165.58335648 -.01773170  00000+0 -20064-1 0  9990
2 69174  53.1586 164.8800 0001109  72.8396  21.0424 15.64711485  5134
STARLINK-37385          
1 69175U 26111AD  26165.58335648  .00019021  00000+0  34934-3 0  9999
2 69175  53.1586 165.7808 0001150  84.3973 284.4123 15.49299714  5138
STARLINK-37414          
1 69176U 26111AE  26165.58335648 -.02604217  00000+0 -25502-1 0  9990
2 69176  53.1593 164.7281 0001239  64.1702 104.0052 15.68983917  5139
STRIX-7                 
1 69177U 26112A   26165.57751899  .00002348  00000+0  19591-3 0  9997
2 69177  44.9057 206.1560 0023367  32.1851 328.0442 15.01426167  3483
SHENZHOU-23 (SZ-23)     
1 69180U 26113A   26165.60947823  .00020829  00000+0  24676-3 0  9994
2 69180  41.4694 337.6883 0007667  56.3828 303.7742 15.60706958292949
STARLINK-37380          
1 69182U 26114A   26165.55955221  .00115068  00000+0  65694-3 0  9997
2 69182  53.1580 215.6233 0001161 107.8185 252.2964 15.78079334  4350
STARLINK-37089          
1 69183U 26114B   26165.43195328  .00266963  00000+0  14927-2 0  9992
2 69183  53.1579 216.2491 0001484  59.5473 300.5695 15.78071104  4336
STARLINK-37428          
1 69184U 26114C   26165.55721361  .00113598  00000+0  64902-3 0  9992
2 69184  53.1581 215.6080 0001362  65.9144 294.2020 15.78068534  4354
STARLINK-37237          
1 69185U 26114D   26165.55445999  .00127277  00000+0  72564-3 0  9995
2 69185  53.1583 215.5896 0000679  92.0726 268.0373 15.78065868  4355
STARLINK-37365          
1 69186U 26114E   26165.55477381  .00109364  00000+0  62532-3 0  9997
2 69186  53.1582 215.5908 0001019  78.6760 281.4377 15.78067279  4357
STARLINK-37209          
1 69187U 26114F   26165.55400160  .00148614  00000+0  84379-3 0  9993
2 69187  53.1580 215.5862 0001470  55.0143 305.1016 15.78085132  4352
STARLINK-37359          
1 69188U 26114G   26165.55355955  .00148537  00000+0  84333-3 0  9999
2 69188  53.1582 215.5833 0001087  98.3964 261.7181 15.78086219  4355
